H1 CPF 01  gfz 2021 01 24 01  5241 terrasarx 
H2 0702601  6201 31698    2021 01 24 00 59 42 2021 01 29 00 00 42   120 1 1  0 0 0
H9
10 0 59242   5742.000000  0    2290639.251   3441390.867  -5517795.238
10 0 59242   5862.000000  0    2064424.475   2693567.703  -6001855.275
10 0 59242   5982.000000  0    1788948.135   1903418.949  -6381080.455
10 0 59242   6102.000000  0    1468397.618   1085499.034  -6648929.633
10 0 59242   6222.000000  0    1107987.303    254736.831  -6800790.934
10 0 59242   6342.000000  0     713873.442   -573832.722  -6834053.370
10 0 59242   6462.000000  0     293049.821  -1385335.379  -6748145.620
10 0 59242   6582.000000  0    -146773.159  -2165316.961  -6544543.482
10 0 59242   6702.000000  0    -597305.523  -2899993.990  -6226748.891
10 0 59242   6822.000000  0   -1049830.123  -3576494.600  -5800236.530
10 0 59242   6942.000000  0   -1495366.349  -4183082.516  -5272368.552
10 0 59242   7062.000000  0   -1924844.185  -4709363.354  -4652279.686
10 0 59242   7182.000000  0   -2329286.058  -5146469.490  -3950730.424
10 0 59242   7302.000000  0   -2699992.616  -5487217.958  -3179929.564
10 0 59242   7422.000000  0   -3028728.005  -5726238.220  -2353328.959
10 0 59242   7542.000000  0   -3307901.203  -5860067.250  -1485392.955
10 0 59242   7662.000000  0   -3530739.077  -5887208.663   -591344.961
10 0 59242   7782.000000  0   -3691445.586  -5808152.494    313104.264
10 0 59242   7902.000000  0   -3785342.864  -5625354.874   1212039.782
10 0 59242   8022.000000  0   -3808990.859  -5343177.802   2089631.613
10 0 59242   8142.000000  0   -3760281.634  -4967789.514   2930422.745
10 0 59242   8262.000000  0   -3638506.300  -4507029.315   3719608.857
10 0 59242   8382.000000  0   -3444393.070  -3970240.454   4443304.907
10 0 59242   8502.000000  0   -3180115.410  -3368074.367   5088792.559
10 0 59242   8622.000000  0   -2849270.760  -2712272.426   5644742.940
10 0 59242   8742.000000  0   -2456830.269  -2015431.421   6101412.147
10 0 59242   8862.000000  0   -2009061.552  -1290757.838   6450807.721
10 0 59242   8982.000000  0   -1513424.977   -551813.662   6686824.479
10 0 59242   9102.000000  0    -978445.589    187740.072   6805343.033
10 0 59242   9222.000000  0    -413566.504    914394.155   6804296.075
10 0 59242   9342.000000  0     171017.487   1615037.341   6683703.027
10 0 59242   9462.000000  0     764543.643   2277192.803   6445669.895
10 0 59242   9582.000000  0    1355878.940   2889240.126   6094354.057
10 0 59242   9702.000000  0    1933727.827   3440619.867   5635896.450
10 0 59242   9822.000000  0    2486847.650   3922019.272   5078320.822
10 0 59242   9942.000000  0    3004269.314   4325534.900   4431399.226
10 0 59242  10062.000000  0    3475516.604   4644807.096   3706484.689
10 0 59242  10182.000000  0    3890820.218   4875126.077   2916317.256
10 0 59242  10302.000000  0    4241326.451   5013508.264   2074799.889
10 0 59242  10422.000000  0    4519286.072   5058733.710   1196748.464
10 0 59242  10542.000000  0    4718225.623   5011351.299    297627.530
10 0 59242  10662.000000  0    4833095.251   4873647.324   -606732.215
10 0 59242  10782.000000  0    4860385.856   4649575.828  -1500421.527
10 0 59242  10902.000000  0    4798216.646   4344656.846  -2367739.711
10 0 59242  11022.000000  0    4646389.873   3965844.579  -3193477.019
10 0 59242  11142.000000  0    4406410.930   3521368.338  -3963185.614
10 0 59242  11262.000000  0    4081473.331   3020551.060  -4663432.749
10 0 59242  11382.000000  0    3676411.525   2473610.080  -5282031.617
10 0 59242  11502.000000  0    3197622.657   1891445.484  -5808246.921
10 0 59242  11622.000000  0    2652958.399   1285420.899  -6232971.746
10 0 59242  11742.000000  0    2051590.467    667141.672  -6548873.487
10 0 59242  11862.000000  0    1403853.899     48235.329  -6750508.276
10 0 59242  11982.000000  0     721070.661   -559862.784  -6834406.553
10 0 59242  12102.000000  0      15353.022  -1146116.744  -6799126.029
10 0 59242  12222.000000  0    -700606.207  -1700084.636  -6645272.110
10 0 59242  12342.000000  0   -1413755.947  -2212099.474  -6375489.622
10 0 59242  12462.000000  0   -2110919.593  -2673435.494  -5994422.495
10 0 59242  12582.000000  0   -2779033.038  -3076455.518  -5508641.828
10 0 59242  12702.000000  0   -3405386.505  -3414738.857  -4926544.701
10 0 59242  12822.000000  0   -3977867.381  -3683187.823  -4258220.486
10 0 59242  12942.000000  0   -4485197.052  -3878108.684  -3515285.985
10 0 59242  13062.000000  0   -4917158.097  -3997266.370  -2710692.161
10 0 59242  13182.000000  0   -5264806.601  -4039911.061  -1858503.289
10 0 59242  13302.000000  0   -5520663.701  -4006774.842   -973652.314
10 0 59242  13422.000000  0   -5678881.624  -3900038.504    -71677.010
10 0 59242  13542.000000  0   -5735379.764  -3723268.805    831558.228
10 0 59242  13662.000000  0   -5687946.444  -3481327.468   1720150.351
10 0 59242  13782.000000  0   -5536301.758  -3180252.339   2578447.695
10 0 59242  13902.000000  0   -5282121.104  -2827115.184   3391333.750
10 0 59242  14022.000000  0   -4929019.540  -2429860.667   4144500.471
10 0 59242  14142.000000  0   -4482496.204  -1997128.624   4824704.974
10 0 59242  14262.000000  0   -3949841.411  -1538066.071   5420002.172
10 0 59242  14382.000000  0   -3340011.063  -1062134.363   5919952.048
10 0 59242  14502.000000  0   -2663469.417   -578913.827   6315800.120
10 0 59242  14622.000000  0   -1932002.077    -97909.834   6600625.665
10 0 59242  14742.000000  0   -1158505.230    371633.442   6769455.016
10 0 59242  14862.000000  0    -356756.583    820908.685   6819342.729
10 0 59242  14982.000000  0     458830.029   1241709.668   6749419.644
10 0 59242  15102.000000  0    1273462.888   1626580.883   6560907.251
10 0 59242  15222.000000  0    2072239.917   1968949.936   6257097.230
10 0 59242  15342.000000  0    2840420.379   2263239.837   5843297.622
10 0 59242  15462.000000  0    3563698.350   2504961.008   5326746.506
10 0 59242  15582.000000  0    4228472.608   2690780.923   4716491.024
10 0 59242  15702.000000  0    4822106.286   2818570.604   4023234.813
10 0 59242  15822.000000  0    5333175.345   2887426.846   3259156.055
10 0 59242  15942.000000  0    5751697.883   2897667.447   2437692.271
10 0 59242  16062.000000  0    6069335.064   2850801.239   1573303.293
10 0 59242  16182.000000  0    6279565.031   2749474.107    681212.334
10 0 59242  16302.000000  0    6377820.846   2597390.053   -222870.184
10 0 59242  16422.000000  0    6361588.302   2399209.385  -1123032.897
10 0 59242  16542.000000  0    6230461.490   2160427.401  -2003450.905
10 0 59242  16662.000000  0    5986159.282   1887238.945  -2848670.744
10 0 59242  16782.000000  0    5632497.619   1586388.648  -3643887.990
10 0 59242  16902.000000  0    5175320.387   1265012.183  -4375209.009
10 0 59242  17022.000000  0    4622390.000    930472.832  -5029892.053
10 0 59242  17142.000000  0    3983243.666    590198.782  -5596562.574
10 0 59242  17262.000000  0    3269019.414    251523.664  -6065402.042
10 0 59242  17382.000000  0    2492254.290    -78465.971  -6428307.856
10 0 59242  17502.000000  0    1666660.196   -393073.839  -6679021.414
10 0 59242  17622.000000  0     806882.791   -686125.089  -6813226.021
10 0 59242  17742.000000  0     -71756.186   -952083.523  -6828613.890
10 0 59242  17862.000000  0    -953526.422  -1186152.449  -6724919.930
10 0 59242  17982.000000  0   -1822563.503  -1384358.851  -6503926.463
10 0 59242  18102.000000  0   -2663148.424  -1543619.638  -6169435.735
10 0 59242  18222.000000  0   -3459985.294  -1661788.673  -5727210.578
10 0 59242  18342.000000  0   -4198476.492  -1737685.103  -5184886.895
10 0 59242  18462.000000  0   -4864992.268  -1771101.677  -4551853.361
10 0 59242  18582.000000  0   -5447126.792  -1762792.416  -3839099.790
10 0 59242  18702.000000  0   -5933937.482  -1714440.183  -3059036.276
10 0 59242  18822.000000  0   -6316161.601  -1628604.119  -2225283.296
10 0 59242  18942.000000  0   -6586404.059  -1508647.452  -1352436.740
10 0 59242  19062.000000  0   -6739291.907  -1358647.624   -455811.447
10 0 59242  19182.000000  0   -6771590.836  -1183290.018    448832.253
10 0 59242  19302.000000  0   -6682279.488   -987747.714   1345572.981
10 0 59242  19422.000000  0   -6472579.043   -777551.295   2218617.448
10 0 59242  19542.000000  0   -6145937.561   -558451.464   3052587.595
10 0 59242  19662.000000  0   -5707969.438   -336277.720   3832799.676
10 0 59242  19782.000000  0   -5166350.547   -116797.093   4545528.874
10 0 59242  19902.000000  0   -4530673.133     94422.750   5178252.462
10 0 59242  20022.000000  0   -3812266.435    292144.070   5719868.242
10 0 59242  20142.000000  0   -3023985.761    471579.601   6160886.665
10 0 59242  20262.000000  0   -2179974.047    628499.962   6493591.817
10 0 59242  20382.000000  0   -1295402.467    759326.453   6712170.938
10 0 59242  20502.000000  0    -386193.853    861208.119   6812809.533
10 0 59242  20622.000000  0     531264.195    932080.792   6793752.785
10 0 59242  20742.000000  0    1440413.499    970707.774   6655334.026
10 0 59242  20862.000000  0    2324822.949    976701.778   6399969.421
10 0 59242  20982.000000  0    3168484.718    950527.098   6032118.943
10 0 59242  21102.000000  0    3956105.948    893482.265   5558213.607
10 0 59242  21222.000000  0    4673388.863    807663.716   4986548.118
10 0 59242  21342.000000  0    5307295.760    695910.226   4327143.128
10 0 59242  21462.000000  0    5846295.713    561730.043   3591574.966
10 0 59242  21582.000000  0    6280584.685    409212.411   2792773.795
10 0 59242  21702.000000  0    6602272.725    242924.370   1944795.212
10 0 59242  21822.000000  0    6805537.199     67794.770   1062570.784
10 0 59242  21942.000000  0    6886735.230   -111009.792    161638.398
10 0 59242  22062.000000  0    6844473.162   -288215.687   -742139.452
10 0 59242  22182.000000  0    6679629.775   -458575.888  -1632864.471
99
